OBJECT_NAME,OBJECT_ID,EPOCH,MEAN_MOTION,ECCENTRICITY,INCLINATION,RA_OF_ASC_NODE,ARG_OF_PERICENTER,MEAN_ANOMALY,EPHEMERIS_TYPE,CLASSIFICATION_TYPE,NORAD_CAT_ID,ELEMENT_SET_NO,REV_AT_EPOCH,BSTAR,MEAN_MOTION_DOT,MEAN_MOTION_DDOT
CUBEBUG-2 (LO-74),2013-066AA,2026-06-19T19:25:48.973440,14.93782039,.00582178,97.8909,119.7987,20.6238,339.7312,0,U,39440,999,67738,.39138462E-3,.4228E-4,0
FUNCUBE-1 (AO-73),2013-066AE,2026-06-19T09:02:23.265024,15.09511616,.00358347,97.8280,141.8681,193.1795,166.8500,0,U,39444,999,67999,.3092781E-3,.4964E-4,0
UWE-3,2013-066AG,2026-06-19T19:44:16.055520,14.97042673,.00472394,97.8700,126.9136,312.3299,47.3925,0,U,39446,999,67797,.32306194E-3,.3743E-4,0
UNISAT-6,2014-033C,2026-06-19T21:21:26.902080,14.88256994,.00461335,97.7886,323.5539,60.6593,299.9221,0,U,40012,999,64656,.24362707E-3,.2238E-4,0
DUCHIFAT-1,2014-033M,2026-06-19T15:26:40.478784,15.65018762,.00025688,98.0454,230.1491,110.7852,249.3681,0,U,40021,999,65613,.96085242E-3,.95101E-3,0
QB50P1,2014-033R,2026-06-19T06:13:02.525664,15.18285787,.00080059,98.0964,181.5504,207.6997,152.3810,0,U,40025,999,65334,.33443702E-3,.6785E-4,0
LILACSAT-2,2015-049K,2026-06-19T21:59:56.813856,15.51519617,.00056836,97.4640,207.8622,232.1035,127.9704,0,U,40908,999,59617,.25111929E-3,.14767E-3,0
FOX-1A (AO-85),2015-058D,2026-06-19T18:24:49.502304,14.90978964,.01305696,64.7745,270.9655,55.6095,305.7282,0,U,40967,999,11395,.16075706E-3,.1694E-4,0
CAS-2T & KS-1Q,2016-066G,2026-06-19T17:36:58.059648,14.44701664,.03428651,98.3821,246.4413,121.7773,241.7303,0,U,41847,999,50516,.19132694E-3,.1315E-4,0
RADFXSAT (FOX-1B),2017-073E,2026-06-19T14:08:32.260992,15.12745467,.01493691,97.4695,37.7543,320.8671,38.1830,0,U,43017,999,46575,.27795465E-3,.6334E-4,0
DIWATA-2B,2018-084H,2026-06-19T21:41:51.271296,15.00463071,.00127311,98.1185,7.2300,161.4269,198.7420,0,U,43678,999,41662,.17018197E-3,.2079E-4,0
ES'HAIL 2,2018-090A,2026-06-19T19:50:32.521920,1.00272188,.00017836,0.0141,54.5765,70.0323,106.8506,0,U,43700,999,2770,0,.139E-5,0
FOX-1CLIFF (AO-95),2018-099N,2026-06-19T16:47:03.147936,15.26755639,.00077084,97.4377,230.9364,348.2880,11.8178,0,U,43770,999,41360,.35594986E-3,.93E-4,0
ITASAT,2018-099AE,2026-06-19T15:45:25.323840,15.19082149,.00118276,97.4023,222.1190,351.5334,8.5699,0,U,43786,999,41328,.23742617E-3,.4921E-4,0
JY1SAT (JO-97),2018-099AX,2026-06-19T16:55:58.418400,15.33718827,.00044921,97.4125,233.5484,250.8022,109.2735,0,U,43803,999,41401,.42740469E-3,.13869E-3,0
UWE-4,2018-111E,2026-06-19T17:44:17.410560,15.46259003,.00050679,97.5852,99.2477,330.7950,29.3015,0,U,43880,999,41117,.56934495E-3,.28E-3,0
TIANYAN 01,2019-093C,2026-06-19T22:32:26.232000,14.86520650,.00150387,97.7526,243.1042,78.7667,281.5238,0,U,44881,999,35182,.32873071E-4,.238E-5,0
RS-44 & BREEZE-KM R/B,2019-096E,2026-06-19T12:10:04.627200,12.79748873,.02182571,82.5220,338.1631,138.7616,223.0205,0,U,44909,999,30264,-.9791032E-5,.1E-6,0
SALSAT,2020-068K,2026-06-19T22:59:40.174368,15.29832652,.00078926,97.8854,174.1914,296.5001,63.5428,0,U,46495,999,31578,.22355472E-3,.6379E-4,0
XW-3 (CAS-9),2021-131B,2026-06-19T23:17:06.638208,14.41359043,.00054019,98.4983,263.3449,90.3739,269.8069,0,U,50466,999,23551,.10257265E-3,.288E-5,0
GREENCUBE (IO-117),2022-080E,2026-06-19T16:11:15.142848,6.42583159,.00088273,70.1442,297.3799,289.0639,70.9064,0,U,53109,999,9222,0,-.3E-7,0
UMKA 1 (RS40S),2023-091G,2026-06-19T22:09:18.285120,15.20844234,.00143262,97.5046,229.6100,109.1797,251.0990,0,U,57172,999,16442,.23086238E-3,.5039E-4,0
CUBESX-HSE 3 (RS42S),2023-091N,2026-06-19T22:02:36.639168,15.31271778,.00119616,97.5086,236.5404,86.4186,273.8423,0,U,57178,999,16484,.3773283E-3,.11347E-3,0
MONITOR-3 (RS58S),2023-091Q,2026-06-19T22:46:33.863520,15.27887642,.00130484,97.5078,234.4156,92.3016,267.9717,0,U,57180,999,16471,.32070582E-3,.8677E-4,0
MONITOR-4 (RS57S),2023-091S,2026-06-19T22:16:11.108640,15.27973176,.00130583,97.5072,234.3656,92.7505,267.5229,0,U,57182,999,16471,.33262408E-3,.9026E-4,0
MONITOR-2 (RS39S),2023-091U,2026-06-19T22:44:51.455328,15.18931792,.00127799,97.5067,229.2132,102.7574,257.5090,0,U,57184,999,16437,.18351695E-3,.3771E-4,0
SVYATOBOR 1 (RS60S),2023-091X,2026-06-19T22:38:26.054304,15.26653723,.00108254,97.5084,234.7759,86.2912,273.9564,0,U,57187,999,16473,.28584346E-3,.7434E-4,0
VIZARD-METEO (RS38S),2023-091Z,2026-06-19T22:46:15.793824,15.36098990,.00080974,97.5087,240.4896,69.5573,290.6539,0,U,57189,999,16511,.41058339E-3,.14379E-3,0
POLYTECH-UNIVERSE 3 (RS46S),2023-091AB,2026-06-19T21:48:39.029184,15.19134475,.00169904,97.5043,228.6788,118.1572,242.1382,0,U,57191,999,16436,.21315827E-3,.4424E-4,0
UTMN 2 (RS27S),2023-091AP,2026-06-19T22:25:47.306784,15.32107595,.0009123,97.5083,238.1940,75.6461,284.5793,0,U,57203,999,16496,.35224989E-3,.10857E-3,0
